OBJECT_NAME,OBJECT_ID,EPOCH,MEAN_MOTION,ECCENTRICITY,INCLINATION,RA_OF_ASC_NODE,ARG_OF_PERICENTER,MEAN_ANOMALY,EPHEMERIS_TYPE,CLASSIFICATION_TYPE,NORAD_CAT_ID,ELEMENT_SET_NO,REV_AT_EPOCH,BSTAR,MEAN_MOTION_DOT,MEAN_MOTION_DDOT
CUTE-1 (CO-55),2003-031E,2026-06-03T13:11:18.293856,14.24327019,.00086909,98.6736,163.2800,219.4250,140.6297,0,U,27844,999,18973,.16425086E-3,.336E-5,0
CUBESAT XI-IV (CO-57),2003-031J,2026-06-05T06:55:03.051264,14.23614275,.00084044,98.6767,164.7190,234.4870,125.5525,0,U,27848,999,18968,.13216853E-3,.257E-5,0
CUBESAT XI-V,2005-043F,2026-06-04T23:14:19.793760,14.72598149,.00129303,98.2974,311.3347,241.7427,118.2475,0,U,28895,999,9995,.27372901E-3,.1691E-4,0
CUTE-1.7+APD II (CO-65),2008-021C,2026-06-05T05:59:35.896128,15.09330786,.00105685,97.8271,137.4216,73.6598,286.5791,0,U,32785,999,98339,.30921923E-3,.4872E-4,0
CANX-2,2008-021H,2026-06-05T04:36:52.904736,15.05527845,.00123609,97.8638,135.7389,86.1502,274.1137,0,U,32790,999,98300,.26165789E-3,.3706E-4,0
SEEDS II (CO-66),2008-021J,2026-06-05T06:03:20.031552,15.32323732,.00027824,97.7518,153.5844,37.9418,322.2018,0,U,32791,999,98546,.52583268E-3,.16346E-3,0
SWISSCUBE,2009-051B,2026-06-05T06:20:04.714080,14.62457994,.00054303,98.4043,63.9444,247.1913,112.8715,0,U,35932,999,88741,.22720604E-3,.1101E-4,0
BEESAT-1,2009-051C,2026-06-05T06:24:45.177120,14.61700495,.00038984,98.3972,63.6080,265.1177,94.9579,0,U,35933,999,88744,.19630042E-3,.929E-5,0
ITUPSAT1,2009-051E,2026-06-04T16:47:20.224032,14.60421767,.0006134,98.4056,62.2366,280.9538,79.0971,0,U,35935,999,88691,.20796E-3,.958E-5,0
TISAT 1,2010-035E,2026-06-05T02:16:43.622112,15.31230464,.00003236,98.0706,101.5757,13.4506,346.6742,0,U,36799,999,86585,.79926744E-3,.24075E-3,0
AEROCUBE 4.5A,2012-048K,2026-06-05T00:50:05.882784,15.87334448,.00188903,64.6278,71.0977,214.1459,145.8486,0,U,38767,999,37072,.10440396E-2,.278208E-2,.3435465E-4
STRAND-1,2013-009E,2026-06-05T05:17:12.122016,14.37155907,.00073888,98.3919,336.7495,266.3997,93.6345,0,U,39090,999,69534,.11172E-3,.289E-5,0
BRITE-AUSTRIA,2013-009F,2026-06-05T05:28:18.854400,14.36537135,.00089627,98.3993,335.9601,276.8792,83.1375,0,U,39091,999,69533,.76469003E-4,.182E-5,0
NEE-01 PEGASO,2013-018B,2026-06-03T11:09:53.669664,14.93586684,.00121772,98.1207,298.1637,203.9081,156.1574,0,U,39151,999,70865,.30779545E-3,.319E-4,0
POPACS 2,2013-055E,2026-06-05T00:42:50.968512,14.90917397,.04172871,80.9906,158.1064,232.8647,123.3771,0,U,39269,999,66140,.20338655E-3,.11902E-3,0
POPACS 3,2013-055F,2026-06-04T22:56:30.493536,14.55874788,.05531539,81.0025,242.4436,107.2016,259.0486,0,U,39270,999,63677,.28872026E-3,.12246E-3,0
ZACUBE-1 (TSHEPISOSAT),2013-066B,2026-06-05T03:25:04.005408,15.01107591,.00398966,97.8104,118.4142,290.2475,69.4462,0,U,39417,999,67892,.3881182E-3,.4989E-4,0
WNISAT-1,2013-066H,2026-06-05T04:50:10.519296,14.58043740,.01616675,97.7190,306.2094,269.6563,88.6111,0,U,39423,999,66498,.13612822E-3,.697E-5,0
TRITON-1,2013-066M,2026-06-05T06:35:51.043776,14.81661319,.00884382,97.8255,66.3532,273.4737,85.6364,0,U,39427,999,67232,.27964446E-3,.2296E-4,0
GOMX-1,2013-066Q,2026-06-05T06:27:56.117664,14.69412923,.01300331,97.6487,357.4837,115.3714,246.1022,0,U,39430,999,66816,.35190238E-3,.2321E-4,0
CUBEBUG-2 (LO-74),2013-066AA,2026-06-03T07:55:56.668800,14.93641817,.00594532,97.8904,103.2522,73.9566,286.8190,0,U,39440,999,67492,.47122985E-3,.5093E-4,0
NEE-02 KRYSAOR,2013-066AB,2026-06-04T18:10:04.769760,14.86564783,.0067693,97.8893,95.0615,109.9850,250.8672,0,U,39441,999,67435,.27225E-3,.2457E-4,0
FUNCUBE-1 (AO-73),2013-066AE,2026-06-05T04:33:52.959456,15.09338913,.00346494,97.8278,127.3873,243.1680,116.6003,0,U,39444,999,67785,.42374976E-3,.6789E-4,0
UWE-3,2013-066AG,2026-06-04T15:34:58.249920,14.96922367,.00493262,97.8702,111.6406,3.6109,356.5458,0,U,39446,999,67570,.40572144E-3,.4713E-4,0
BRITE-CA1 (TORONTO),2014-033L,2026-06-05T06:48:01.748448,14.72659814,.00776073,97.9726,285.4318,315.7555,43.7465,0,U,40020,999,64046,.11859125E-3,.737E-5,0
DUCHIFAT-1,2014-033M,2026-06-04T16:02:21.168384,15.62101054,.00048528,98.0472,213.0954,139.0185,221.1436,0,U,40021,999,65379,.10760804E-2,.95076E-3,0
NANOSATC-BR1,2014-033Q,2026-06-05T01:13:17.194080,15.31055935,.00031768,98.0722,187.3677,199.6617,160.4501,0,U,40024,999,65212,.65634437E-3,.19638E-3,0
QB50P1,2014-033R,2026-06-05T06:52:12.860544,15.18070423,.00070248,98.0971,166.5996,264.5036,95.5395,0,U,40025,999,65122,.39734895E-3,.8026E-4,0
QB50P2,2014-033Y,2026-06-05T05:05:26.582208,15.14995805,.00067475,98.0754,152.3486,204.2735,155.8179,0,U,40032,999,65085,.39173692E-3,.7245E-4,0
PERSEUS-M2,2014-033AD,2026-06-05T06:53:34.850688,14.95480464,.00116138,97.9975,106.5861,348.6081,11.4874,0,U,40037,999,64900,.28066435E-3,.3049E-4,0
